[
    {
        "Altitude(m)": 553534.525588191,
        "Argument of Periapsis(deg)": 0.033114955553567506,
        "Eccentricity": 0.0,
        "Inclination(deg)": 53.0,
        "Latitude(deg)": 8.334109485656455,
        "Longitude(deg)": -117.68471546559837,
        "Mean Anomaly(deg)": 10.458064337888022,
        "RAAN(deg)": 339.9507168426401,
        "Satellite Name": "Starlink Shell 1 1515",
        "Satellite Number": 1515,
        "Semi-Major Axis(m)": 6931778.249405717,
        "Time(s)": 950
    },
    {
        "Altitude(m)": 553516.9556418585,
        "Argument of Periapsis(deg)": 0.03346353403307874,
        "Eccentricity": 0.0,
        "Inclination(deg)": 53.0,
        "Latitude(deg)": 8.834833233748519,
        "Longitude(deg)": -117.34072302572883,
        "Mean Anomaly(deg)": 11.084895541444668,
        "RAAN(deg)": 339.95019807256267,
        "Satellite Name": "Starlink Shell 1 1515",
        "Satellite Number": 1515,
        "Semi-Major Axis(m)": 6931778.249405717,
        "Time(s)": 960
    },
    {
        "Altitude(m)": 553502.1163584063,
        "Argument of Periapsis(deg)": 0.03381211251258998,
        "Eccentricity": 0.0,
        "Inclination(deg)": 53.0,
        "Latitude(deg)": 9.335153020652244,
        "Longitude(deg)": -116.99568603373527,
        "Mean Anomaly(deg)": 11.711726745001414,
        "RAAN(deg)": 339.94967930248515,
        "Satellite Name": "Starlink Shell 1 1515",
        "Satellite Number": 1515,
        "Semi-Major Axis(m)": 6931778.249405717,
        "Time(s)": 970
    },
    {
        "Altitude(m)": 553489.9917042226,
        "Argument of Periapsis(deg)": 0.034160690992101214,
        "Eccentricity": 0.0,
        "Inclination(deg)": 53.0,
        "Latitude(deg)": 9.835043926204127,
        "Longitude(deg)": -116.64954270824546,
        "Mean Anomaly(deg)": 12.338557948558211,
        "RAAN(deg)": 339.9491605324077,
        "Satellite Name": "Starlink Shell 1 1515",
        "Satellite Number": 1515,
        "Semi-Major Axis(m)": 6931778.249405717,
        "Time(s)": 980
    },
    {
        "Altitude(m)": 553480.5643833379,
        "Argument of Periapsis(deg)": 0.034509269471612446,
        "Eccentricity": 0.0,
        "Inclination(deg)": 53.0,
        "Latitude(deg)": 10.334480797096639,
        "Longitude(deg)": -116.3022302813055,
        "Mean Anomaly(deg)": 12.965389152114856,
        "RAAN(deg)": 339.9486417623302,
        "Satellite Name": "Starlink Shell 1 1515",
        "Satellite Number": 1515,
        "Semi-Major Axis(m)": 6931778.249405717,
        "Time(s)": 990
    }
]